      2.10          N: GNSS NAV DATA                        RINEX VERSION / TYPE
fic2rin                                 07/18/2023 00:17:54 PGM / RUN BY / DATE
                                                            END OF HEADER
22 23  7 17  2  0  0.0  .513815321028D-03  .545696821064D-11  .000000000000D+00
     .840000000000D+02 -.223125000000D+02  .436018161907D-08 -.263532309110D+01
    -.118464231491D-05  .143710620468D-01  .100042670965D-04  .515365703583D+04
     .936000000000D+05  .219792127609D-06 -.272997974689D+01  .335276126862D-07
     .963165203857D+00  .182718750000D+03 -.179799631273D+01 -.751245578108D-08
     .681456956846D-09  .100000000000D+01  .227100000000D+04  .000000000000D+00
     .340000000000D+01  .630000000000D+02 -.838190317154D-08  .840000000000D+02
     .864000000000D+05  .400000000000D+01
20 23  7 17  1 59 44.0  .422282144427D-03 -.204636307899D-11  .000000000000D+00
     .500000000000D+01 -.129156250000D+03  .460983487527D-08  .246973682737D+01
    -.656954944134D-05  .403015315533D-02  .325217843056D-05  .515358828735D+04
     .935840000000D+05 -.614672899246D-07  .225392970657D+01 -.130385160446D-07
     .949305956849D+00  .307656250000D+03 -.287620240707D+01 -.825498671047D-08
    -.964325882329D-10  .100000000000D+01  .227100000000D+04  .000000000000D+00
     .240000000000D+01  .000000000000D+00 -.838190317154D-08  .500000000000D+01
     .874500000000D+05  .400000000000D+01
4  23  7 17  2 14 40.0  .979197211564D-04  .109139364213D-10  .000000000000D+00
     .770000000000D+02 -.351250000000D+02  .441054085959D-08 -.276500978550D+01
    -.173784792423D-05  .243577710353D-02  .105928629637D-04  .515364687538D+04
     .944800000000D+05 -.651925802231D-07 -.277848759564D+01 -.186264514923D-08
     .963370642906D+00  .181375000000D+03 -.300321095636D+01 -.766317634491D-08
     .629311927653D-09  .100000000000D+01  .227100000000D+04  .000000000000D+00
     .240000000000D+01  .000000000000D+00 -.465661287308D-08  .589000000000D+03
     .888300000000D+05  .400000000000D+01
10 23  7 17  1 59 44.0 -.454564578831D-04 -.147792889038D-11  .000000000000D+00
     .100000000000D+01 -.123312500000D+03  .398873757550D-08 -.466690610829D+00
    -.626407563686D-05  .859189999755D-02  .582635402679D-05  .515369287491D+04
     .935840000000D+05  .298023223877D-07  .242185201494D+01  .149011611938D-06
     .979618586441D+00  .277625000000D+03 -.243867076717D+01 -.795604568695D-08
    -.485734518507D-10  .100000000000D+01  .227100000000D+04  .000000000000D+00
     .240000000000D+01  .000000000000D+00  .232830643654D-08  .100000000000D+01
     .916200000000D+05  .400000000000D+01
15 23  7 17  1 59 44.0  .587203539908D-04  .352429196937D-11  .000000000000D+00
     .170000000000D+02 -.655312500000D+02  .489020369661D-08  .283165140208D+01
    -.352598726749D-05  .151270264760D-01  .103488564491D-04  .515375777054D+04
     .935840000000D+05  .124797224998D-06 -.295518020323D+01 -.210478901863D-06
     .933199183446D+00  .165656250000D+03  .121473046784D+01 -.771103548129D-08
     .448590114150D-09  .100000000000D+01  .227100000000D+04  .000000000000D+00
     .240000000000D+01  .000000000000D+00 -.107102096081D-07  .170000000000D+02
     .916200000000D+05  .400000000000D+01
7  23  7 17  1 59 44.0  .122983008623D-03 -.109139364213D-10  .000000000000D+00
     .160000000000D+02  .809375000000D+01  .542236872056D-08  .957677786438D+00
     .616535544395D-06  .174983626930D-01  .553391873837D-05  .515372541618D+04
     .935840000000D+05 -.176951289177D-06 -.176371259494D+01  .162050127983D-06
     .949855266496D+00  .273093750000D+03 -.218123816009D+01 -.852714090393D-08
    -.367872466222D-10  .100000000000D+01  .227100000000D+04  .000000000000D+00
     .240000000000D+01  .000000000000D+00 -.111758708954D-07  .160000000000D+02
     .919500000000D+05  .400000000000D+01
10 23  7 17  3 59 44.0 -.454676337540D-04 -.147792889038D-11  .000000000000D+00
     .200000000000D+01 -.122281250000D+03  .389337646047D-08  .583540550189D+00
    -.643730163574D-05  .859214388765D-02  .546872615814D-05  .515369328308D+04
     .100784000000D+06 -.111758708954D-06  .242179528152D+01  .156462192535D-06
     .979618242655D+00  .286437500000D+03 -.243873804385D+01 -.789747181854D-08
    -.127862468842D-09  .100000000000D+01  .227100000000D+04  .000000000000D+00
     .240000000000D+01  .000000000000D+00  .232830643654D-08  .200000000000D+01
     .936000000000D+05  .400000000000D+01
7  23  7 17  3 59 44.0  .122903846204D-03 -.109139364213D-10  .000000000000D+00
     .310000000000D+02  .465625000000D+01  .526414784432D-08  .200780256844D+01
     .111758708954D-07  .174983784091D-01  .537745654583D-05  .515372642136D+04
     .100784000000D+06 -.257045030594D-06 -.176377443981D+01 -.361353158951D-06
     .949857466725D+00  .274437500000D+03 -.218120683024D+01 -.809533720329D-08
     .203937066226D-09  .100000000000D+01  .227100000000D+04  .000000000000D+00
     .240000000000D+01  .000000000000D+00 -.111758708954D-07  .310000000000D+02
     .936000000000D+05  .400000000000D+01
20 23  7 17  3 59 44.0  .422267243266D-03 -.204636307899D-11  .000000000000D+00
     .600000000000D+01 -.134843750000D+03  .456590447396D-08 -.276327476174D+01
    -.684708356857D-05  .403074792121D-02  .353902578354D-05  .515358725739D+04
     .100784000000D+06 -.149011611938D-07  .225387045985D+01 -.186264514923D-07
     .949305462383D+00  .304875000000D+03 -.287614267173D+01 -.821212778237D-08
    -.953611150304D-10  .100000000000D+01  .227100000000D+04  .000000000000D+00
     .240000000000D+01  .000000000000D+00 -.838190317154D-08  .600000000000D+01
     .936000000000D+05  .400000000000D+01
15 23  7 17  3 59 44.0  .587459653616D-04  .352429196937D-11  .000000000000D+00
     .180000000000D+02 -.664062500000D+02  .478805658463D-08 -.240139899970D+01
    -.368058681488D-05  .151270929491D-01  .986643135548D-05  .515375764275D+04
     .100784000000D+06  .223517417908D-06 -.295523690740D+01  .186264514923D-07
     .933203003125D+00  .165531250000D+03  .121472816228D+01 -.774282251964D-08
     .640026659679D-09  .100000000000D+01  .227100000000D+04  .000000000000D+00
     .240000000000D+01  .000000000000D+00 -.107102096081D-07  .180000000000D+02
     .936000000000D+05  .400000000000D+01
1  23  7 17  4  0  0.0  .172649975866D-03 -.181898940355D-11  .000000000000D+00
     .430000000000D+02  .262812500000D+02  .378587198248D-08  .267053103079D+01
     .121630728245D-05  .129278048407D-01  .763684511185D-07  .515364024353D+04
     .100800000000D+06  .113621354103D-06  .139387496563D+01 -.145286321640D-06
     .989876448053D+00  .391937500000D+03  .986236513304D+00 -.783889795014D-08
     .100361323309D-09  .100000000000D+01  .227100000000D+04  .000000000000D+00
     .240000000000D+01  .630000000000D+02  .465661287308D-08  .430000000000D+02
     .936000000000D+05  .400000000000D+01
3  23  7 17  4  0  0.0 -.229305122048D-03  .160298441187D-10  .000000000000D+00
     .140000000000D+02 -.126531250000D+03  .386587531494D-08  .149333683918D+01
    -.662915408611D-05  .504812970757D-02  .589340925217D-05  .515363902855D+04
     .100800000000D+06 -.968575477600D-07  .242442818296D+01 -.111758708954D-07
     .979895298858D+00  .273468750000D+03  .106450710561D+01 -.787925677410D-08
    -.105004373854D-09  .100000000000D+01  .227100000000D+04  .000000000000D+00
     .240000000000D+01  .000000000000D+00  .186264514923D-08  .140000000000D+02
     .936000000000D+05  .400000000000D+01
2  23  7 17  4  0  0.0 -.575372017920D-03  .386535248253D-11  .000000000000D+00
     .640000000000D+02  .412812500000D+02  .446661462386D-08 -.939756001295D+00
     .242888927460D-05  .159476594999D-01  .105798244476D-05  .515354843903D+04
     .100800000000D+06 -.180676579475D-06  .129410429348D+01  .141561031342D-06
     .967305873521D+00  .367812500000D+03 -.136891754809D+01 -.851214027910D-08
     .244295890190D-09  .100000000000D+01  .227100000000D+04  .000000000000D+00
     .240000000000D+01  .000000000000D+00 -.176951289177D-07  .640000000000D+02
     .936000000000D+05  .400000000000D+01
